{"fetched_at":"2026-07-22T07:09:23.750Z","source":"https://celestrak.org/NORAD/elements/gp.php?GROUP=planet&FORMAT=JSON","constellation":"tanager","records":[{"OBJECT_NAME":"TANAGER-1","OBJECT_ID":"2024-149AR","EPOCH":"2026-07-21T12:00:58.077216","CLASSIFICATION_TYPE":"U","MEAN_MOTION":15.43898611,"ECCENTRICITY":0.00027985,"INCLINATION":97.231,"RA_OF_ASC_NODE":296.5952,"ARG_OF_PERICENTER":128.1626,"MEAN_ANOMALY":231.9875,"EPHEMERIS_TYPE":0,"NORAD_CAT_ID":60507,"ELEMENT_SET_NO":999,"REV_AT_EPOCH":10833,"BSTAR":0.000007381813,"MEAN_MOTION_DOT":0.00000251,"MEAN_MOTION_DDOT":0}]}
